{"type": "FeatureCollection", "features": [ {"type": "Feature", "properties": {"norad_id": 66510, "name": "STARLINK-35600", "group": "last-30-days", "lat": 39.36723752119334, "lon": -76.80991478365591, "alt_km": 380.45364000157406, "timestamp": "2025-12-05T22:40:47.341804+00:00", "meta": {"OBJECT_NAME": "STARLINK-35600", "OBJECT_ID": "2025-263AB", "EPOCH": "2025-12-05T06:00:02.000160", "MEAN_MOTION": 15.63872823, "ECCENTRICITY": 0.00013931, "INCLINATION": 42.9992, "RA_OF_ASC_NODE": 169.0291, "ARG_OF_PERICENTER": 268.7567, "MEAN_ANOMALY": 249.2525, "EPHEMERIS_TYPE": 0, "CLASSIFICATION_TYPE": "U", "NORAD_CAT_ID": 66510, "ELEMENT_SET_NO": 999, "REV_AT_EPOCH": 443, "BSTAR": -0.024204916, "MEAN_MOTION_DOT": -0.0204854, "MEAN_MOTION_DDOT": 0}, "tle": {"line1": "1 66510U 25263AB  25339.25002315 -.02048540  00000+0 -24205-1 0  9994", "line2": "2 66510  42.9992 169.0291 0001393 268.7567 249.2525 15.63872823  4435"}}, "geometry": {"type": "Point", "coordinates": [-76.80991478365591, 39.36723752119334]}}, {"type": "Feature", "properties": {"norad_id": 66511, "name": "STARLINK-35444", "group": "last-30-days", "lat": 38.038188173448916, "lon": -72.21564870644941, "alt_km": 380.7057628638804, "timestamp": "2025-12-05T22:40:47.341818+00:00", "meta": {"OBJECT_NAME": "STARLINK-35444", "OBJECT_ID": "2025-263AC", "EPOCH": "2025-12-05T06:00:02.000160", "MEAN_MOTION": 15.63880221, "ECCENTRICITY": 0.00014379, "INCLINATION": 42.9994, "RA_OF_ASC_NODE": 169.0202, "ARG_OF_PERICENTER": 269.2486, "MEAN_ANOMALY": 252.5932, "EPHEMERIS_TYPE": 0, "CLASSIFICATION_TYPE": "U", "NORAD_CAT_ID": 66511, "ELEMENT_SET_NO": 999, "REV_AT_EPOCH": 443, "BSTAR": -0.024358971, "MEAN_MOTION_DOT": -0.0206049, "MEAN_MOTION_DDOT": 0}, "tle": {"line1": "1 66511U 25263AC  25339.25002315 -.02060490  00000+0 -24359-1 0  9993", "line2": "2 66511  42.9994 169.0202 0001437 269.2486 252.5932 15.63880221  4435"}}, "geometry": {"type": "Point", "coordinates": [-72.21564870644941, 38.038188173448916]}}, {"type": "Feature", "properties": {"norad_id": 66512, "name": "STARLINK-35366", "group": "last-30-days", "lat": 36.533585424998755, "lon": -67.79018978570329, "alt_km": 380.8598809003679, "timestamp": "2025-12-05T22:40:47.341828+00:00", "meta": {"OBJECT_NAME": "STARLINK-35366", "OBJECT_ID": "2025-263AD", "EPOCH": "2025-12-05T06:00:02.000160", "MEAN_MOTION": 15.63885438, "ECCENTRICITY": 0.00013864, "INCLINATION": 42.9993, "RA_OF_ASC_NODE": 169.0102, "ARG_OF_PERICENTER": 267.2099, "MEAN_ANOMALY": 258.4625, "EPHEMERIS_TYPE": 0, "CLASSIFICATION_TYPE": "U", "NORAD_CAT_ID": 66512, "ELEMENT_SET_NO": 999, "REV_AT_EPOCH": 443, "BSTAR": -0.024422582, "MEAN_MOTION_DOT": -0.02065519, "MEAN_MOTION_DDOT": 0}, "tle": {"line1": "1 66512U 25263AD  25339.25002315 -.02065519  00000+0 -24423-1 0  9993", "line2": "2 66512  42.9993 169.0102 0001386 267.2099 258.4625 15.63885438  4434"}}, "geometry": {"type": "Point", "coordinates": [-67.79018978570329, 36.533585424998755]}}, {"type": "Feature", "properties": {"norad_id": 66513, "name": "STARLINK-35692", "group": "last-30-days", "lat": 38.72495122705841, "lon": -74.49050834830662, "alt_km": 380.53150031005225, "timestamp": "2025-12-05T22:40:47.341838+00:00", "meta": {"OBJECT_NAME": "STARLINK-35692", "OBJECT_ID": "2025-263AE", "EPOCH": "2025-12-05T06:00:02.000160", "MEAN_MOTION": 15.63874643, "ECCENTRICITY": 0.00014046, "INCLINATION": 42.9993, "RA_OF_ASC_NODE": 169.0244, "ARG_OF_PERICENTER": 266.5254, "MEAN_ANOMALY": 253.4001, "EPHEMERIS_TYPE": 0, "CLASSIFICATION_TYPE": "U", "NORAD_CAT_ID": 66513, "ELEMENT_SET_NO": 999, "REV_AT_EPOCH": 443, "BSTAR": -0.024240499, "MEAN_MOTION_DOT": -0.0205131, "MEAN_MOTION_DDOT": 0}, "tle": {"line1": "1 66513U 25263AE  25339.25002315 -.02051310  00000+0 -24240-1 0  9995", "line2": "2 66513  42.9993 169.0244 0001404 266.5254 253.4001 15.63874643  4437"}}, "geometry": {"type": "Point", "coordinates": [-74.49050834830662, 38.72495122705841]}}, {"type": "Feature", "properties": {"norad_id": 66514, "name": "SENTINEL-6B", "group": "last-30-days", "lat": 38.71693653172755, "lon": -162.52370544492453, "alt_km": 1320.3457450732958, "timestamp": "2025-12-05T22:40:47.341848+00:00", "meta": {"OBJECT_NAME": "SENTINEL-6B", "OBJECT_ID": "2025-264A", "EPOCH": "2025-12-05T05:39:22.607712", "MEAN_MOTION": 12.8587775, "ECCENTRICITY": 0.0011549, "INCLINATION": 66.0392, "RA_OF_ASC_NODE": 178.08, "ARG_OF_PERICENTER": 268.4163, "MEAN_ANOMALY": 91.5532, "EPHEMERIS_TYPE": 0, "CLASSIFICATION_TYPE": "U", "NORAD_CAT_ID": 66514, "ELEMENT_SET_NO": 999, "REV_AT_EPOCH": 232, "BSTAR": 0.00029277117, "MEAN_MOTION_DOT": 1e-07, "MEAN_MOTION_DDOT": 0}, "tle": {"line1": "1 66514U 25264A   25339.23567833  .00000010  00000+0  29277-3 0  9990", "line2": "2 66514  66.0392 178.0800 0011549 268.4163  91.5532 12.85877750  2326"}}, "geometry": {"type": "Point", "coordinates": [-162.52370544492453, 38.71693653172755]}}, {"type": "Feature", "properties": {"norad_id": 66516, "name": "STARLINK-35924", "group": "last-30-days", "lat": -12.239613218069112, "lon": -72.47872444898972, "alt_km": 365.8604373565213, "timestamp": "2025-12-05T22:40:47.341860+00:00", "meta": {"OBJECT_NAME": "STARLINK-35924", "OBJECT_ID": "2025-265A", "EPOCH": "2025-12-05T06:00:02.000160", "MEAN_MOTION": 15.70704556, "ECCENTRICITY": 0.00013582, "INCLINATION": 43, "RA_OF_ASC_NODE": 98.2404, "ARG_OF_PERICENTER": 269.0606, "MEAN_ANOMALY": 318.042, "EPHEMERIS_TYPE": 0, "CLASSIFICATION_TYPE": "U", "NORAD_CAT_ID": 66516, "ELEMENT_SET_NO": 999, "REV_AT_EPOCH": 377, "BSTAR": -0.016688826, "MEAN_MOTION_DOT": -0.01891503, "MEAN_MOTION_DDOT": 0}, "tle": {"line1": "1 66516U 25265A   25339.25002315 -.01891503  00000+0 -16689-1 0  9993", "line2": "2 66516  43.0000  98.2404 0001358 269.0606 318.0420 15.70704556  3771"}}, "geometry": {"type": "Point", "coordinates": [-72.47872444898972, -12.239613218069112]}}, {"type": "Feature", "properties": {"norad_id": 66517, "name": "STARLINK-35937", "group": "last-30-days", "lat": -13.507632813860836, "lon": -71.00588198446643, "alt_km": 365.93234235710406, "timestamp": "2025-12-05T22:40:47.341870+00:00", "meta": {"OBJECT_NAME": "STARLINK-35937", "OBJECT_ID": "2025-265B", "EPOCH": "2025-12-05T06:00:02.000160", "MEAN_MOTION": 15.70703019, "ECCENTRICITY": 0.0001198, "INCLINATION": 42.9999, "RA_OF_ASC_NODE": 98.2361, "ARG_OF_PERICENTER": 267.2812, "MEAN_ANOMALY": 321.7401, "EPHEMERIS_TYPE": 0, "CLASSIFICATION_TYPE": "U", "NORAD_CAT_ID": 66517, "ELEMENT_SET_NO": 999, "REV_AT_EPOCH": 379, "BSTAR": -0.016678694, "MEAN_MOTION_DOT": -0.01890258, "MEAN_MOTION_DDOT": 0}, "tle": {"line1": "1 66517U 25265B   25339.25002315 -.01890258  00000+0 -16679-1 0  9999", "line2": "2 66517  42.9999  98.2361 0001198 267.2812 321.7401 15.70703019  3795"}}, "geometry": {"type": "Point", "coordinates": [-71.00588198446643, -13.507632813860836]}}, {"type": "Feature", "properties": {"norad_id": 66518, "name": "STARLINK-35962", "group": "last-30-days", "lat": -14.771257720393164, "lon": -69.51304858235754, "alt_km": 365.8571350993707, "timestamp": "2025-12-05T22:40:47.341880+00:00", "meta": {"OBJECT_NAME": "STARLINK-35962", "OBJECT_ID": "2025-265C", "EPOCH": "2025-12-05T06:00:02.000160", "MEAN_MOTION": 15.70674548, "ECCENTRICITY": 0.00015698, "INCLINATION": 42.9999, "RA_OF_ASC_NODE": 98.2309, "ARG_OF_PERICENTER": 267.0472, "MEAN_ANOMALY": 323.9095, "EPHEMERIS_TYPE": 0, "CLASSIFICATION_TYPE": "U", "NORAD_CAT_ID": 66518, "ELEMENT_SET_NO": 999, "REV_AT_EPOCH": 379, "BSTAR": -0.016377263, "MEAN_MOTION_DOT": -0.01822418, "MEAN_MOTION_DDOT": 0}, "tle": {"line1": "1 66518U 25265C   25339.25002315 -.01822418  00000+0 -16377-1 0  9998", "line2": "2 66518  42.9999  98.2309 0001569 267.0472 323.9095 15.70674548  3797"}}, "geometry": {"type": "Point", "coordinates": [-69.51304858235754, -14.771257720393164]}}, {"type": "Feature", "properties": {"norad_id": 66519, "name": "STARLINK-35931", "group": "last-30-days", "lat": -15.978385335470204, "lon": -68.05946528313413, "alt_km": 366.529442035393, "timestamp": "2025-12-05T22:40:47.341894+00:00", "meta": {"OBJECT_NAME": "STARLINK-35931", "OBJECT_ID": "2025-265D", "EPOCH": "2025-12-05T06:00:02.000160", "MEAN_MOTION": 15.70635165, "ECCENTRICITY": 0.00016153, "INCLINATION": 43, "RA_OF_ASC_NODE": 98.2257, "ARG_OF_PERICENTER": 279.0378, "MEAN_ANOMALY": 313.9285, "EPHEMERIS_TYPE": 0, "CLASSIFICATION_TYPE": "U", "NORAD_CAT_ID": 66519, "ELEMENT_SET_NO": 999, "REV_AT_EPOCH": 379, "BSTAR": -0.016669854, "MEAN_MOTION_DOT": -0.0188485, "MEAN_MOTION_DDOT": 0}, "tle": {"line1": "1 66519U 25265D   25339.25002315 -.01884850  00000+0 -16670-1 0  9993", "line2": "2 66519  43.0000  98.2257 0001615 279.0378 313.9285 15.70635165  3797"}}, "geometry": {"type": "Point", "coordinates": [-68.05946528313413, -15.978385335470204]}}, {"type": "Feature", "properties": {"norad_id": 66520, "name": "STARLINK-35952", "group": "last-30-days", "lat": -17.25061438280311, "lon": -66.49483375792589, "alt_km": 366.20328319473083, "timestamp": "2025-12-05T22:40:47.341905+00:00", "meta": {"OBJECT_NAME": "STARLINK-35952", "OBJECT_ID": "2025-265E", "EPOCH": "2025-12-05T06:00:02.000160", "MEAN_MOTION": 15.70701904, "ECCENTRICITY": 0.00012982, "INCLINATION": 42.9999, "RA_OF_ASC_NODE": 98.221, "ARG_OF_PERICENTER": 269.4141, "MEAN_ANOMALY": 325.358, "EPHEMERIS_TYPE": 0, "CLASSIFICATION_TYPE": "U", "NORAD_CAT_ID": 66520, "ELEMENT_SET_NO": 999, "REV_AT_EPOCH": 379, "BSTAR": -0.016659086, "MEAN_MOTION_DOT": -0.01888277, "MEAN_MOTION_DDOT": 0}, "tle": {"line1": "1 66520U 25265E   25339.25002315 -.01888277  00000+0 -16659-1 0  9999", "line2": "2 66520  42.9999  98.2210 0001298 269.4141 325.3580 15.70701904  3791"}}, "geometry": {"type": "Point", "coordinates": [-66.49483375792589, -17.25061438280311]}}]}